*******************************************************************************
JPL/HORIZONS                      10 Hygiea                2017-Jul-19 10:53:16
Rec #:    10 (+COV)   Soln.date: 2017-Apr-05_16:15:18   # obs: 3205 (1849-2016)
 
IAU76/J2000 helio. ecliptic osc. elements (au, days, deg., period=Julian yrs): 
 
  EPOCH=  2451472.5 ! 1999-Oct-21.00 (TDB)         Residual RMS= .19982        
   EC= .1194544268557199   QR= 2.763391998206685   TP= 2451662.3989727627      
   OM= 283.6672869575922   W=  314.3981770799839   IN= 3.842604862097326       
   A= 3.138272546574821    MA= 326.3340632698365   ADIST= 3.513153094942957    
   PER= 5.55961            N= .177283401           ANGMOM= .030255609          
   DAN= 2.85489            DDN= 3.37561            L= 238.1299368              
   B= -2.744513            MOID= 1.75396001        TP= 2000-Apr-27.8989727627  
 
Asteroid physical parameters (km, seconds, rotational period in hours):        
   GM= 7.                  RAD= 203.56             ROTPER= 27.63               
   H= 5.43                 G= .150                 B-V= .696                   
                           ALBEDO= .0717           STYP= C                     
 
ASTEROID comments: 
1: soln ref.= JPL#86, OCC=0
2: source=ORB
*******************************************************************************
 
 
*******************************************************************************
Ephemeris / WWW_USER Wed Jul 19 10:53:16 2017 Pasadena, USA      / Horizons    
*******************************************************************************
Target body name: 10 Hygiea                       {source: JPL#86}
Center body name: Sun (10)                        {source: DE431}
Center-site name: BODY CENTER
*******************************************************************************
Start time      : A.D. 2017-Jul-10 00:00:00.0000 TDB
Stop  time      : A.D. 2020-Aug-13 00:00:00.0000 TDB
Step-size       : 1440 minutes
*******************************************************************************
Center geodetic : 0.00000000,0.00000000,0.0000000 {E-lon(deg),Lat(deg),Alt(km)}
Center cylindric: 0.00000000,0.00000000,0.0000000 {E-lon(deg),Dxy(km),Dz(km)}
Center radii    : 696000.0 x 696000.0 x 696000.0 k{Equator, meridian, pole}    
Small perturbers: Yes                             {source: SB431-N16}
Output units    : KM-S                                                         
Output type     : GEOMETRIC cartesian states
Output format   : 3 (position, velocity, LT, range, range-rate)
Reference frame : ICRF/J2000.0                                                 
Coordinate systm: Ecliptic and Mean Equinox of Reference Epoch                 
*******************************************************************************
Initial IAU76/J2000 heliocentric ecliptic osculating elements (au, days, deg.):
  EPOCH=  2451472.5 ! 1999-Oct-21.00 (TDB)         Residual RMS= .19982        
   EC= .1194544268557199   QR= 2.763391998206685   TP= 2451662.3989727627      
   OM= 283.6672869575922   W=  314.3981770799839   IN= 3.842604862097326       
  Equivalent ICRF heliocentric equatorial cartesian coordinates (au, au/d):
   X=-2.729075228056256E+00  Y=-6.318415330288718E-01  Z=-4.814092059781990E-01
  VX= 3.647789490662312E-03 VY=-9.234328850804019E-03 VZ=-3.917594783341073E-03
Asteroid physical parameters (km, seconds, rotational period in hours):        
   GM= 7.                  RAD= 203.56             ROTPER= 27.63               
   H= 5.43                 G= .150                 B-V= .696                   
                           ALBEDO= .0717           STYP= C                     
*******************************************************************************
            JDTDB,            Calendar Date (TDB),                      X,                      Y,                      Z,                     VX,                     VY,                     VZ,                     LT,                     RG,                     RR,
**************************************************************************************************************************************************************************************************************************************************************************
$$SOE
2458868.500000000, A.D. 2020-Jan-20 00:00:00.0000,  1.660244726267715E+08,  4.928227146266839E+08,  1.836244033053824E+07, -1.442516737345605E+01,  4.348855516180054E+00, -8.741074497530364E-01,  1.735737341083850E+03,  5.203609639259118E+08, -5.145788965341391E-01,
2458869.500000000, A.D. 2020-Jan-21 00:00:00.0000,  1.647775557062256E+08,  4.931967229847529E+08,  1.828685297623536E+07, -1.443863389201886E+01,  4.308738560100911E+00, -8.755988645306865E-01,  1.735588381898505E+03,  5.203163070855957E+08, -5.191438485542552E-01,
2458870.500000000, A.D. 2020-Jan-22 00:00:00.0000,  1.635294795154075E+08,  4.935672634764284E+08,  1.821113701299313E+07, -1.445200231415246E+01,  4.268580859546801E+00, -8.770845068879264E-01,  1.735438107452680E+03,  5.202712559401069E+08, -5.237063274791373E-01,
2458871.500000000, A.D. 2020-Jan-23 00:00:00.0000,  1.622802525348569E+08,  4.939343325887484E+08,  1.813529293997520E+07, -1.446527252388660E+01,  4.228382584887212E+00, -8.785643669526186E-01,  1.735286518462222E+03,  5.202258107040518E+08, -5.282663118061683E-01,
2458872.500000000, A.D. 2020-Jan-24 00:00:00.0000,  1.610298832551441E+08,  4.942979268234680E+08,  1.805932125719708E+07, -1.447844440499322E+01,  4.188143906439903E+00, -8.800384348874271E-01,  1.735133615649145E+03,  5.201799715938845E+08, -5.328237802497864E-01,
2458873.500000000, A.D. 2020-Jan-25 00:00:00.0000,  1.597783801768950E+08,  4.946580426970555E+08,  1.798322246552217E+07, -1.449151784091780E+01,  4.147864994456561E+00, -8.815067008973907E-01,  1.734979399741568E+03,  5.201337388278892E+08, -5.373787117402894E-01,
2458874.500000000, A.D. 2020-Jan-26 00:00:00.0000,  1.585257518108227E+08,  4.950146767406855E+08,  1.790699706665814E+07, -1.450449271469763E+01,  4.107546019116887E+00, -8.829691552380096E-01,  1.734823871473649E+03,  5.200871126261612E+08, -5.419310854118362E-01,
2458875.500000000, A.D. 2020-Jan-27 00:00:00.0000,  1.572720066777674E+08,  4.953678255002337E+08,  1.783064556315213E+07, -1.451736890886619E+01,  4.067187150537571E+00, -8.844257882234772E-01,  1.734667031585535E+03,  5.200400932105913E+08, -5.464808805735051E-01,
2458876.500000000, A.D. 2020-Jan-28 00:00:00.0000,  1.560171533087435E+08,  4.957174855362713E+08,  1.775416845838523E+07, -1.453014630534324E+01,  4.026788558795491E+00, -8.858765902348638E-01,  1.734508880823317E+03,  5.199926808048514E+08, -5.510280766639939E-01,
2458877.500000000, A.D. 2020-Jan-29 00:00:00.0000,  1.547612002449986E+08,  4.960636534240649E+08,  1.767756625656658E+07, -1.454282478531336E+01,  3.986350413978878E+00, -8.873215517272648E-01,  1.734349419939002E+03,  5.199448756343874E+08, -5.555726531779059E-01,
2458878.500000000, A.D. 2020-Jan-30 00:00:00.0000,  1.535041560380825E+08,  4.964063257535793E+08,  1.760083946272641E+07, -1.455540422909576E+01,  3.945872886267463E+00, -8.887606632352970E-01,  1.734188649690507E+03,  5.198966779264178E+08, -5.601145895634774E-01,
2458879.500000000, A.D. 2020-Jan-31 00:00:00.0000,  1.522460292499276E+08,  4.967454991294914E+08,  1.752398858270934E+07, -1.456788451601135E+01,  3.905356146051473E+00, -8.901939153756919E-01,  1.734026570841697E+03,  5.198480879099435E+08, -5.646538650840559E-01,
2458880.500000000, A.D. 2020-Feb-01 00:00:00.0000,  1.509868284529403E+08,  4.970811701712144E+08,  1.744701412316725E+07, -1.458026552425591E+01,  3.864800364097044E+00, -8.916212988455303E-01,  1.733863184162462E+03,  5.197991058157713E+08, -5.691904586384370E-01,
2458881.500000000, A.D. 2020-Feb-02 00:00:00.0000,  1.497265622301039E+08,  4.974133355129393E+08,  1.736991659155247E+07, -1.459254713079462E+01,  3.824205711759787E+00, -8.930428044145744E-01,  1.733698490428852E+03,  5.197497318765548E+08, -5.737243485423583E-01,
2458882.500000000, A.D. 2020-Feb-03 00:00:00.0000,  1.484652391750876E+08,  4.977419918036981E+08,  1.729269649611220E+07, -1.460472921129410E+01,  3.783572361256750E+00, -8.944584229094052E-01,  1.733532490423278E+03,  5.196999663268560E+08, -5.782555122652631E-01,
2458883.500000000, A.D. 2020-Feb-04 00:00:00.0000,  1.472028678923597E+08,  4.980671357074488E+08,  1.721535434588462E+07, -1.461681164011487E+01,  3.742900485966502E+00, -8.958681451897184E-01,  1.733365184934802E+03,  5.196498094032289E+08, -5.827839261567331E-01,
2458884.500000000, A.D. 2020-Feb-05 00:00:00.0000,  1.459394569972978E+08,  4.983887639031945E+08,  1.713789065069762E+07, -1.462879429036802E+01,  3.702190260802237E+00, -8.972719621127169E-01,  1.733196574759503E+03,  5.195992613443321E+08, -5.873095651192635E-01,
2458885.500000000, A.D. 2020-Feb-06 00:00:00.0000,  1.446750151162909E+08,  4.987068730851285E+08,  1.706030592117047E+07, -1.464067703410758E+01,  3.661441862557593E+00, -8.986698644873792E-01,  1.733026660700932E+03,  5.195483223910644E+08, -5.918324023419855E-01,
2458886.500000000, A.D. 2020-Feb-07 00:00:00.0000,  1.434095508868185E+08,  4.990214599628131E+08,  1.698260066872060E+07, -1.465245974260825E+01,  3.620655470252136E+00, -9.000618430208456E-01,  1.732855443570646E+03,  5.194969927867242E+08, -5.963524090531833E-01,
2458887.500000000, A.D. 2020-Feb-08 00:00:00.0000,  1.421430729575013E+08,  4.993325212613850E+08,  1.690477540557522E+07, -1.466414228677121E+01,  3.579831265425220E+00, -9.014478882573043E-01,  1.732682924188796E+03,  5.194452727771868E+08, -6.008695543510922E-01,
2458888.500000000, A.D. 2020-Feb-09 00:00:00.0000,  1.408755899881119E+08,  4.996400537217814E+08,  1.682683064478725E+07, -1.467572453764219E+01,  3.538969432314734E+00, -9.028279905159751E-01,  1.732509103384753E+03,  5.193931626110913E+08, -6.053838051678474E-01,
